[{"OBJECT_NAME":"STARLINK-6247","OBJECT_ID":"2023-088AQ","EPOCH":"2026-03-09T22:00:01.999584","MEAN_MOTION":15.10083965,"ECCENTRICITY":0.00019423,"INCLINATION":43.0003,"RA_OF_ASC_NODE":93.1443,"ARG_OF_PERICENTER":278.2112,"MEAN_ANOMALY":125.9123,"EPHEMERIS_TYPE":0,"CLASSIFICATION_TYPE":"U","NORAD_CAT_ID":57086,"ELEMENT_SET_NO":999,"REV_AT_EPOCH":572,"BSTAR":0.0036696584,"MEAN_MOTION_DOT":0.00061107,"MEAN_MOTION_DDOT":0},{"OBJECT_NAME":"THOR ABLESTAR DEB","OBJECT_ID":"1961-015HM","EPOCH":"2026-03-09T12:53:31.788672","MEAN_MOTION":15.12609006,"ECCENTRICITY":0.0020802,"INCLINATION":66.4912,"RA_OF_ASC_NODE":108.7707,"ARG_OF_PERICENTER":275.236,"MEAN_ANOMALY":209.827,"EPHEMERIS_TYPE":0,"CLASSIFICATION_TYPE":"U","NORAD_CAT_ID":660,"ELEMENT_SET_NO":999,"REV_AT_EPOCH":37032,"BSTAR":0.0020976473,"MEAN_MOTION_DOT":0.00036985,"MEAN_MOTION_DDOT":0}]
